ORBCOMM FM37 [-]        
1 33064U 08031E   24113.40637034  .00004341  00000+0  64863-3 0  9997
2 33064  48.4394 178.7539 0005948   5.8703  84.8283 14.76286790851804
ORBCOMM FM40 [-]        
1 33065U 08031F   24113.56559396  .00004592  00000+0  66423-3 0  9991
2 33065  48.4414 167.5457 0007091  16.5950 136.3532 14.77579264852305
VESSELSAT 1 [-]         
1 37840U 11058C   24113.32851277  .00000645  00000+0  20751-3 0  9995
2 37840  19.9616 120.0862 0013530 237.5497 122.3599 14.11141484646785
ORBCOMM FM109 [+]       
1 40086U 14040A   24113.32931003  .00003605  00000+0  83923-3 0  9990
2 40086  47.0024 201.5343 0002198 212.8720 147.2029 14.56521877519676
ORBCOMM FM107 [+]       
1 40087U 14040B   24113.63804243  .00003528  00000+0  82206-3 0  9997
2 40087  47.0038 201.0442 0001383 197.4704 162.6133 14.56530388519834
ORBCOMM FM106 [-]       
1 40088U 14040C   24113.21178512  .00004460  00000+0  81950-3 0  9996
2 40088  47.0606  57.5348 0018520 274.0256  85.8517 14.66915605521611
ORBCOMM FM111 [-]       
1 40089U 14040D   24112.95121289  .00004257  00000+0  55709-3 0  9993
2 40089  47.0040 321.9847 0033183 340.5921  19.3709 14.81581434527668
ORBCOMM FM104 [-]       
1 40090U 14040E   24113.45353356  .00002655  00000+0  64728-3 0  9994
2 40090  47.0037 230.6244 0016079  84.1317 276.1400 14.55061843519310
